SL-16 R/B               
1 25400U 98043G   26050.83991630  .00000054  00000+0  41472-4 0  9997
2 25400  98.8224   4.0803 0010888  68.2881 291.9457 14.26045270436448
SL-16 R/B               
1 25407U 98045B   26050.84427785  .00000151  00000+0  10055-3 0  9992
2 25407  71.0095 219.1006 0005821  39.1196 321.0347 14.16190680424574
ISS (ZARYA)             
1 25544U 98067A   26050.82880434  .00062824  00000+0  11723-2 0  9997
2 25544  51.6323 160.6397 0008552 112.9938 247.1953 15.48149648553685
CZ-4B R/B               
1 25732U 99025C   26050.62519025  .00000051  00000+0  45506-4 0  9996
2 25732  98.6665  95.3315 0037728  38.3311 125.6899 14.18261610385605
OKEAN-O                 
1 25860U 99039A   26050.60434385  .00000635  00000+0  90186-4 0  9998
2 25860  97.9484 110.6762 0001699  78.9906 281.1497 14.80304412431716
SL-16 R/B               
1 25861U 99039B   26050.60128239  .00000523  00000+0  73245-4 0  9990
2 25861  98.0008 109.7212 0013842 320.1468  39.8727 14.81704511434181
DELTA 2 R/B             
1 25876U 99041E   26050.95579191  .00001453  00000+0  27142-3 0  9991
2 25876  51.7661  12.1015 0502215 296.0616  58.9444 14.11769953360527
HELIOS 1B               
1 25977U 99064A   26050.62070361  .00001727  00000+0  19640-3 0  9995
2 25977  98.1716 312.3316 0002341  99.8643 260.2837 14.87618632682574
TERRA                   
1 25994U 99068A   26050.90692554  .00000384  00000+0  87451-4 0  9997
2 25994  97.9632 105.0176 0001430 203.5948 208.6337 14.60994141392480
SL-16 R/B               
1 26070U 00006B   26050.64308511 -.00000017  00000+0  15905-4 0  9994
2 26070  71.0023 135.7841 0017904 215.3380 144.6558 14.15818319346009
TITAN 4B R/B            
1 26474U 00047B   26050.87204372  .00002714  00000+0  17512-3 0  9992
2 26474  67.9877  90.6080 0037468  56.9556 303.5183 15.09394106390223
ENVISAT                 
1 27386U 02009A   26050.87363557  .00000112  00000+0  50258-4 0  9991
2 27386  98.3699   4.8987 0001352  87.4189 292.9048 14.39029788256611
