CCSDS_OMM_VERS = 2.0
CREATION_DATE  = 
ORIGINATOR     = 

OBJECT_NAME    = SL-16 R/B
OBJECT_ID      = 1998-043G
CENTER_NAME    = EARTH
REF_FRAME      = TEME
TIME_SYSTEM    = UTC
MEAN_ELEMENT_THEORY = SGP/SGP4

EPOCH          = 2026-02-19T20:09:28.768320
MEAN_MOTION    = 14.26045270
ECCENTRICITY   = .00108886
INCLINATION    = 98.8224
RA_OF_ASC_NODE = 4.0803
ARG_OF_PERICENTER = 68.2881
MEAN_ANOMALY   = 291.9457

EPHEMERIS_TYPE = 0
CLASSIFICATION_TYPE = U
NORAD_CAT_ID   = 25400
ELEMENT_SET_NO = 999
REV_AT_EPOCH   = 43644
BSTAR          = .41471611E-4
MEAN_MOTION_DOT = .54E-6
MEAN_MOTION_DDOT = 0

CCSDS_OMM_VERS = 2.0
CREATION_DATE  = 
ORIGINATOR     = 

OBJECT_NAME    = SL-16 R/B
OBJECT_ID      = 1998-045B
CENTER_NAME    = EARTH
REF_FRAME      = TEME
TIME_SYSTEM    = UTC
MEAN_ELEMENT_THEORY = SGP/SGP4

EPOCH          = 2026-02-19T20:15:45.606240
MEAN_MOTION    = 14.16190680
ECCENTRICITY   = .0005821
INCLINATION    = 71.0095
RA_OF_ASC_NODE = 219.1006
ARG_OF_PERICENTER = 39.1196
MEAN_ANOMALY   = 321.0347

EPHEMERIS_TYPE = 0
CLASSIFICATION_TYPE = U
NORAD_CAT_ID   = 25407
ELEMENT_SET_NO = 999
REV_AT_EPOCH   = 42457
BSTAR          = .10055009E-3
MEAN_MOTION_DOT = .151E-5
MEAN_MOTION_DDOT = 0

CCSDS_OMM_VERS = 2.0
CREATION_DATE  = 
ORIGINATOR     = 

OBJECT_NAME    = ISS (ZARYA)
OBJECT_ID      = 1998-067A
CENTER_NAME    = EARTH
REF_FRAME      = TEME
TIME_SYSTEM    = UTC
MEAN_ELEMENT_THEORY = SGP/SGP4

EPOCH          = 2026-02-19T19:53:28.694976
MEAN_MOTION    = 15.48149648
ECCENTRICITY   = .0008552
INCLINATION    = 51.6323
RA_OF_ASC_NODE = 160.6397
ARG_OF_PERICENTER = 112.9938
MEAN_ANOMALY   = 247.1953

EPHEMERIS_TYPE = 0
CLASSIFICATION_TYPE = U
NORAD_CAT_ID   = 25544
ELEMENT_SET_NO = 999
REV_AT_EPOCH   = 55368
BSTAR          = .11723307E-2
MEAN_MOTION_DOT = .62824E-3
MEAN_MOTION_DDOT = 0

CCSDS_OMM_VERS = 2.0
CREATION_DATE  = 
ORIGINATOR     = 

OBJECT_NAME    = CZ-4B R/B
OBJECT_ID      = 1999-025C
CENTER_NAME    = EARTH
REF_FRAME      = TEME
TIME_SYSTEM    = UTC
MEAN_ELEMENT_THEORY = SGP/SGP4

EPOCH          = 2026-02-19T15:00:16.437600
MEAN_MOTION    = 14.18261610
ECCENTRICITY   = .0037728
INCLINATION    = 98.6665
RA_OF_ASC_NODE = 95.3315
ARG_OF_PERICENTER = 38.3311
MEAN_ANOMALY   = 125.6899

EPHEMERIS_TYPE = 0
CLASSIFICATION_TYPE = U
NORAD_CAT_ID   = 25732
ELEMENT_SET_NO = 999
REV_AT_EPOCH   = 38560
BSTAR          = .45506E-4
MEAN_MOTION_DOT = .51E-6
MEAN_MOTION_DDOT = 0

CCSDS_OMM_VERS = 2.0
CREATION_DATE  = 
ORIGINATOR     = 

OBJECT_NAME    = OKEAN-O
OBJECT_ID      = 1999-039A
CENTER_NAME    = EARTH
REF_FRAME      = TEME
TIME_SYSTEM    = UTC
MEAN_ELEMENT_THEORY = SGP/SGP4

EPOCH          = 2026-02-19T14:30:15.308640
MEAN_MOTION    = 14.80304412
ECCENTRICITY   = .00016991
INCLINATION    = 97.9484
RA_OF_ASC_NODE = 110.6762
ARG_OF_PERICENTER = 78.9906
MEAN_ANOMALY   = 281.1497

EPHEMERIS_TYPE = 0
CLASSIFICATION_TYPE = U
NORAD_CAT_ID   = 25860
ELEMENT_SET_NO = 999
REV_AT_EPOCH   = 43171
BSTAR          = .90186207E-4
MEAN_MOTION_DOT = .635E-5
MEAN_MOTION_DDOT = 0

CCSDS_OMM_VERS = 2.0
CREATION_DATE  = 
ORIGINATOR     = 

OBJECT_NAME    = SL-16 R/B
OBJECT_ID      = 1999-039B
CENTER_NAME    = EARTH
REF_FRAME      = TEME
TIME_SYSTEM    = UTC
MEAN_ELEMENT_THEORY = SGP/SGP4

EPOCH          = 2026-02-19T14:25:50.798496
MEAN_MOTION    = 14.81704511
ECCENTRICITY   = .00138427
INCLINATION    = 98.0008
RA_OF_ASC_NODE = 109.7212
ARG_OF_PERICENTER = 320.1468
MEAN_ANOMALY   = 39.8727

EPHEMERIS_TYPE = 0
CLASSIFICATION_TYPE = U
NORAD_CAT_ID   = 25861
ELEMENT_SET_NO = 999
REV_AT_EPOCH   = 43418
BSTAR          = .7324516E-4
MEAN_MOTION_DOT = .523E-5
MEAN_MOTION_DDOT = 0

CCSDS_OMM_VERS = 2.0
CREATION_DATE  = 
ORIGINATOR     = 

OBJECT_NAME    = DELTA 2 R/B
OBJECT_ID      = 1999-041E
CENTER_NAME    = EARTH
REF_FRAME      = TEME
TIME_SYSTEM    = UTC
MEAN_ELEMENT_THEORY = SGP/SGP4

EPOCH          = 2026-02-19T22:56:20.421024
MEAN_MOTION    = 14.11769953
ECCENTRICITY   = .05022153
INCLINATION    = 51.7661
RA_OF_ASC_NODE = 12.1015
ARG_OF_PERICENTER = 296.0616
MEAN_ANOMALY   = 58.9444

EPHEMERIS_TYPE = 0
CLASSIFICATION_TYPE = U
NORAD_CAT_ID   = 25876
ELEMENT_SET_NO = 999
REV_AT_EPOCH   = 36052
BSTAR          = .27141883E-3
MEAN_MOTION_DOT = .1453E-4
MEAN_MOTION_DDOT = 0

CCSDS_OMM_VERS = 2.0
CREATION_DATE  = 
ORIGINATOR     = 

OBJECT_NAME    = HELIOS 1B
OBJECT_ID      = 1999-064A
CENTER_NAME    = EARTH
REF_FRAME      = TEME
TIME_SYSTEM    = UTC
MEAN_ELEMENT_THEORY = SGP/SGP4

EPOCH          = 2026-02-19T14:53:48.791904
MEAN_MOTION    = 14.87618632
ECCENTRICITY   = .00023416
INCLINATION    = 98.1716
RA_OF_ASC_NODE = 312.3316
ARG_OF_PERICENTER = 99.8643
MEAN_ANOMALY   = 260.2837

EPHEMERIS_TYPE = 0
CLASSIFICATION_TYPE = U
NORAD_CAT_ID   = 25977
ELEMENT_SET_NO = 999
REV_AT_EPOCH   = 68257
BSTAR          = .19640048E-3
MEAN_MOTION_DOT = .1727E-4
MEAN_MOTION_DDOT = 0

CCSDS_OMM_VERS = 2.0
CREATION_DATE  = 
ORIGINATOR     = 

OBJECT_NAME    = TERRA
OBJECT_ID      = 1999-068A
CENTER_NAME    = EARTH
REF_FRAME      = TEME
TIME_SYSTEM    = UTC
MEAN_ELEMENT_THEORY = SGP/SGP4

EPOCH          = 2026-02-19T21:45:58.366656
MEAN_MOTION    = 14.60994141
ECCENTRICITY   = .00014306
INCLINATION    = 97.9632
RA_OF_ASC_NODE = 105.0176
ARG_OF_PERICENTER = 203.5948
MEAN_ANOMALY   = 208.6337

EPHEMERIS_TYPE = 0
CLASSIFICATION_TYPE = U
NORAD_CAT_ID   = 25994
ELEMENT_SET_NO = 999
REV_AT_EPOCH   = 39248
BSTAR          = .8745067E-4
MEAN_MOTION_DOT = .384E-5
MEAN_MOTION_DDOT = 0

CCSDS_OMM_VERS = 2.0
CREATION_DATE  = 
ORIGINATOR     = 

OBJECT_NAME    = SL-16 R/B
OBJECT_ID      = 2000-006B
CENTER_NAME    = EARTH
REF_FRAME      = TEME
TIME_SYSTEM    = UTC
MEAN_ELEMENT_THEORY = SGP/SGP4

EPOCH          = 2026-02-19T15:26:02.553504
MEAN_MOTION    = 14.15818319
ECCENTRICITY   = .00179049
INCLINATION    = 71.0023
RA_OF_ASC_NODE = 135.7841
ARG_OF_PERICENTER = 215.3380
MEAN_ANOMALY   = 144.6558

EPHEMERIS_TYPE = 0
CLASSIFICATION_TYPE = U
NORAD_CAT_ID   = 26070
ELEMENT_SET_NO = 999
REV_AT_EPOCH   = 34600
BSTAR          = .15905298E-4
MEAN_MOTION_DOT = -.17E-6
MEAN_MOTION_DDOT = 0

CCSDS_OMM_VERS = 2.0
CREATION_DATE  = 
ORIGINATOR     = 

OBJECT_NAME    = TITAN 4B R/B
OBJECT_ID      = 2000-047B
CENTER_NAME    = EARTH
REF_FRAME      = TEME
TIME_SYSTEM    = UTC
MEAN_ELEMENT_THEORY = SGP/SGP4

EPOCH          = 2026-02-19T20:55:44.577408
MEAN_MOTION    = 15.09394106
ECCENTRICITY   = .00374686
INCLINATION    = 67.9877
RA_OF_ASC_NODE = 90.6080
ARG_OF_PERICENTER = 56.9556
MEAN_ANOMALY   = 303.5183

EPHEMERIS_TYPE = 0
CLASSIFICATION_TYPE = U
NORAD_CAT_ID   = 26474
ELEMENT_SET_NO = 999
REV_AT_EPOCH   = 39022
BSTAR          = .17511547E-3
MEAN_MOTION_DOT = .2714E-4
MEAN_MOTION_DDOT = 0

CCSDS_OMM_VERS = 2.0
CREATION_DATE  = 
ORIGINATOR     = 

OBJECT_NAME    = ENVISAT
OBJECT_ID      = 2002-009A
CENTER_NAME    = EARTH
REF_FRAME      = TEME
TIME_SYSTEM    = UTC
MEAN_ELEMENT_THEORY = SGP/SGP4

EPOCH          = 2026-02-19T20:58:02.113248
MEAN_MOTION    = 14.39029788
ECCENTRICITY   = .00013524
INCLINATION    = 98.3699
RA_OF_ASC_NODE = 4.8987
ARG_OF_PERICENTER = 87.4189
MEAN_ANOMALY   = 292.9048

EPHEMERIS_TYPE = 0
CLASSIFICATION_TYPE = U
NORAD_CAT_ID   = 27386
ELEMENT_SET_NO = 999
REV_AT_EPOCH   = 25661
BSTAR          = .50257544E-4
MEAN_MOTION_DOT = .112E-5
MEAN_MOTION_DDOT = 0

